STARLINK-3735           
1 52116U 22029AE  26201.22028662  .00000849  00000+0  37150-4 0  9999
2 52116  53.1608 200.3324 0001374  76.4311 283.6845 15.33552406240849
STARLINK-3738           
1 52117U 22029AF  26201.28001228 -.00000931  00000+0 -16990-4 0  9998
2 52117  53.1615 200.1931 0001180  82.0862 278.0275 15.33556967240862
STARLINK-3743           
1 52118U 22029AG  26201.23016754  .00001354  00000+0  51190-4 0  9993
2 52118  53.1609 200.4678 0001018  75.4372 284.6743 15.34394667240848
STARLINK-3558           
1 52119U 22029AH  26201.25960499  .00000128  00000+0  14573-4 0  9992
2 52119  53.1608 198.7413 0001051  69.5282 290.5834 15.35396994240871
STARLINK-3534           
1 52120U 22029AJ  26201.31158790  .00000995  00000+0  40593-4 0  9997
2 52120  53.1597 198.2336 0001123  86.0957 274.0174 15.34390112240893
STARLINK-3678           
1 52121U 22029AK  26201.37975413  .00000252  00000+0  33925-4 0  9990
2 52121  53.1594 193.1549 0001091  74.8882 285.2230 15.08827063240952
STARLINK-3726           
1 52122U 22029AL  26201.29611177  .00000880  00000+0  38083-4 0  9993
2 52122  53.1612 200.3309 0001232  82.3171 277.7972 15.33550939240852
STARLINK-3725           
1 52123U 22029AM  26201.35492892  .00000610  00000+0  56445-4 0  9995
2 52123  53.1608 193.0894 0001209  77.5637 282.5489 15.08830578240963
STARLINK-3727           
1 52125U 22029AP  26201.36871407 -.00000053  00000+0  14732-4 0  9996
2 52125  53.1598 193.2046 0001117  73.4935 286.6179 15.08831225240969
STARLINK-3732           
1 52126U 22029AQ  26201.37608686  .00000827  00000+0  70055-4 0  9993
2 52126  53.1583 193.1710 0001015  72.1343 287.9759 15.08822452240956
STARLINK-3715           
1 52127U 22029AR  26201.36502878 -.00004633  00000+0 -27318-3 0  9993
2 52127  53.1594 193.2207 0000868  71.9674 288.1412 15.08838642240957
STARLINK-3661           
1 52129U 22029AT  26201.35767389 -.00000043  00000+0  15407-4 0  9991
2 52129  53.1599 193.2524 0001252  71.9381 288.1747 15.08829415240969
STARLINK-3711           
1 52131U 22029AV  26200.99764352  .00011870  00000+0  55988-3 0  9996
2 52131  53.2130 185.8260 0001387   3.5123 356.5884 15.19895376241045
STARLINK-3718           
1 52132U 22029AW  26201.36135416 -.00000234  00000+0  33960-5 0  9993
2 52132  53.1596 193.2371 0001175  87.2871 272.8255 15.08834518240962
STARLINK-3707           
1 52133U 22029AX  26201.14790969  .00000464  00000+0  47252-4 0  9992
2 52133  53.1612 194.1972 0001161  68.8432 291.2684 15.08829682240936
STARLINK-3721           
1 52134U 22029AY  26200.95287635 -.00000440  00000+0 -95442-5 0  9993
2 52134  53.1594 195.0749 0001398  76.0736 284.0411 15.08836839240905
STARLINK-3720           
1 52136U 22029BA  26201.27671312  .00000424  00000+0  44753-4 0  9998
2 52136  53.1610 193.6183 0001242  57.3941 302.7170 15.08839559240957
STARLINK-3733           
1 52137U 22029BB  26201.26566942  .00000237  00000+0  32970-4 0  9990
2 52137  53.1606 193.6670 0000952  70.5861 289.5233 15.08837309240952
STARLINK-3723           
1 52138U 22029BC  26201.27303063 -.00000912  00000+0 -39208-4 0  9998
2 52138  53.1600 193.6354 0001544  88.5890 271.5278 15.08833274240952
STARLINK-3730           
1 52139U 22029BD  26201.26944078  .00000933  00000+0  37664-4 0  9990
2 52139  53.1603 200.3183 0001126  80.8615 279.2516 15.35398939240851
STARLINK-3682           
1 52140U 22029BE  26201.26198806  .00000769  00000+0  66436-4 0  9998
2 52140  53.1596 193.6834 0001021  74.4679 285.6425 15.08834515240950
MERIDIAN 10             
1 52145U 22030A   26200.86891406  .00000140  00000+0  00000+0 0  9999
2 52145  62.6764 137.2648 6793201 272.8380  17.5937  2.00608863 31682
TK-2                    
1 52150U 22031A   26201.60435803  .00001342  00000+0  10231-3 0  9990
2 52150  97.8317  38.1379 0015925  20.1538 340.0312 15.03716821235481
PUJIANG 2 (PJ-2)        
1 52151U 22031B   26201.65394610 -.00000003  00000+0  52076-5 0  9995
2 52151  97.8620  27.2304 0013152  91.6327 268.6400 14.94345624234799
TIANPING 2A             
1 52153U 22032A   26201.56169333  .00000448  00000+0  43458-4 0  9995
2 52153  97.5834 238.2979 0011483  69.4177 290.8277 14.97283739234833
TIANPING 2B             
1 52155U 22032C   26201.61205941  .00001790  00000+0  14126-3 0  9999
2 52155  97.5796 246.0958 0023012  56.3139 304.0276 15.01768514235293
TIANPING 2C             
1 52156U 22032D   26201.58671877  .00002631  00000+0  15914-3 0  9992
2 52156  97.5809 253.6681 0007616  54.3714 305.8225 15.11503173235893
OMNI-L1                 
1 52157U 22033A   26201.17704542  .00000929  00000+0  12114-3 0  9992
2 52157  97.8387 279.7142 0005741 162.4877 197.6536 14.82854341232349
GNOMES-3                
1 52158U 22033B   26201.52115109  .00000980  00000+0  12058-3 0  9991
2 52158  97.8220 277.2343 0010322 206.6604 153.4082 14.85188157232289
ENMAP                   
1 52159U 22033C   26201.61045208  .00000462  00000+0  76245-4 0  9998
2 52159  97.9784 283.3841 0001259  84.7353 275.3999 14.74944256231583
