OBJECT_NAME,OBJECT_ID,EPOCH,MEAN_MOTION,ECCENTRICITY,INCLINATION,RA_OF_ASC_NODE,ARG_OF_PERICENTER,MEAN_ANOMALY,EPHEMERIS_TYPE,CLASSIFICATION_TYPE,NORAD_CAT_ID,ELEMENT_SET_NO,REV_AT_EPOCH,BSTAR,MEAN_MOTION_DOT,MEAN_MOTION_DDOT
STARLINK-3735,2022-029AE,2026-07-20T05:17:12.763968,15.33552406,.00013744,53.1608,200.3324,76.4311,283.6845,0,U,52116,999,24084,.37150013E-4,.849E-5,0
STARLINK-3738,2022-029AF,2026-07-20T06:43:13.060992,15.33556967,.000118,53.1615,200.1931,82.0862,278.0275,0,U,52117,999,24086,-.16989643E-4,-.931E-5,0
STARLINK-3743,2022-029AG,2026-07-20T05:31:26.475456,15.34394667,.00010182,53.1609,200.4678,75.4372,284.6743,0,U,52118,999,24084,.51190338E-4,.1354E-4,0
STARLINK-3558,2022-029AH,2026-07-20T06:13:49.871136,15.35396994,.00010518,53.1608,198.7413,69.5282,290.5834,0,U,52119,999,24087,.14573023E-4,.128E-5,0
STARLINK-3534,2022-029AJ,2026-07-20T07:28:41.194560,15.34390112,.00011232,53.1597,198.2336,86.0957,274.0174,0,U,52120,999,24089,.40593173E-4,.995E-5,0
STARLINK-3678,2022-029AK,2026-07-20T09:06:50.756832,15.08827063,.00010914,53.1594,193.1549,74.8882,285.2230,0,U,52121,999,24095,.33924693E-4,.252E-5,0
STARLINK-3726,2022-029AL,2026-07-20T07:06:24.056928,15.33550939,.00012323,53.1612,200.3309,82.3171,277.7972,0,U,52122,999,24085,.38082938E-4,.88E-5,0
STARLINK-3725,2022-029AM,2026-07-20T08:31:05.858688,15.08830578,.00012093,53.1608,193.0894,77.5637,282.5489,0,U,52123,999,24096,.56444724E-4,.61E-5,0
STARLINK-3727,2022-029AP,2026-07-20T08:50:56.895648,15.08831225,.0001117,53.1598,193.2046,73.4935,286.6179,0,U,52125,999,24096,.14731617E-4,-.53E-6,0
STARLINK-3732,2022-029AQ,2026-07-20T09:01:33.904704,15.08822452,.00010154,53.1583,193.1710,72.1343,287.9759,0,U,52126,999,24095,.70055004E-4,.827E-5,0
STARLINK-3715,2022-029AR,2026-07-20T08:45:38.486592,15.08838642,.00008686,53.1594,193.2207,71.9674,288.1412,0,U,52127,999,24095,-.27317739E-3,-.4633E-4,0
STARLINK-3661,2022-029AT,2026-07-20T08:35:03.024096,15.08829415,.00012526,53.1599,193.2524,71.9381,288.1747,0,U,52129,999,24096,.1540711E-4,-.43E-6,0
STARLINK-3711,2022-029AV,2026-07-19T23:56:36.400128,15.19895376,.00013879,53.2130,185.8260,3.5123,356.5884,0,U,52131,999,24104,.55987933E-3,.1187E-3,0
STARLINK-3718,2022-029AW,2026-07-20T08:40:20.999424,15.08834518,.00011755,53.1596,193.2371,87.2871,272.8255,0,U,52132,999,24096,.3395995E-5,-.234E-5,0
STARLINK-3707,2022-029AX,2026-07-20T03:32:59.397216,15.08829682,.00011613,53.1612,194.1972,68.8432,291.2684,0,U,52133,999,24093,.47251716E-4,.464E-5,0
STARLINK-3721,2022-029AY,2026-07-19T22:52:08.516640,15.08836839,.00013982,53.1594,195.0749,76.0736,284.0411,0,U,52134,999,24090,-.9544202E-5,-.44E-5,0
STARLINK-3720,2022-029BA,2026-07-20T06:38:28.013568,15.08839559,.00012425,53.1610,193.6183,57.3941,302.7170,0,U,52136,999,24095,.44753443E-4,.424E-5,0
STARLINK-3733,2022-029BB,2026-07-20T06:22:33.837888,15.08837309,.00009525,53.1606,193.6670,70.5861,289.5233,0,U,52137,999,24095,.32969836E-4,.237E-5,0
STARLINK-3723,2022-029BC,2026-07-20T06:33:09.846432,15.08833274,.00015446,53.1600,193.6354,88.5890,271.5278,0,U,52138,999,24095,-.39207725E-4,-.912E-5,0
STARLINK-3730,2022-029BD,2026-07-20T06:27:59.683392,15.35398939,.00011267,53.1603,200.3183,80.8615,279.2516,0,U,52139,999,24085,.3766383E-4,.933E-5,0
STARLINK-3682,2022-029BE,2026-07-20T06:17:15.768384,15.08834515,.00010217,53.1596,193.6834,74.4679,285.6425,0,U,52140,999,24095,.66435501E-4,.769E-5,0
MERIDIAN 10,2022-030A,2026-07-19T20:51:14.174784,2.00608863,.67932014,62.6764,137.2648,272.8380,17.5937,0,U,52145,999,3168,0,.14E-5,0
TK-2,2022-031A,2026-07-20T14:30:16.533792,15.03716821,.00159251,97.8317,38.1379,20.1538,340.0312,0,U,52150,999,23548,.10231025E-3,.1342E-4,0
PUJIANG 2 (PJ-2),2022-031B,2026-07-20T15:41:40.943040,14.94345624,.00131528,97.8620,27.2304,91.6327,268.6400,0,U,52151,999,23479,.520762E-5,-.3E-7,0
TIANPING 2A,2022-032A,2026-07-20T13:28:50.303712,14.97283739,.00114831,97.5834,238.2979,69.4177,290.8277,0,U,52153,999,23483,.43457658E-4,.448E-5,0
TIANPING 2B,2022-032C,2026-07-20T14:41:21.933024,15.01768514,.00230129,97.5796,246.0958,56.3139,304.0276,0,U,52155,999,23529,.14125678E-3,.179E-4,0
TIANPING 2C,2022-032D,2026-07-20T14:04:52.501728,15.11503173,.00076162,97.5809,253.6681,54.3714,305.8225,0,U,52156,999,23589,.15913918E-3,.2631E-4,0
OMNI-L1,2022-033A,2026-07-20T04:14:56.724288,14.82854341,.00057411,97.8387,279.7142,162.4877,197.6536,0,U,52157,999,23234,.12114431E-3,.929E-5,0
GNOMES-3,2022-033B,2026-07-20T12:30:27.454176,14.85188157,.00103221,97.8220,277.2343,206.6604,153.4082,0,U,52158,999,23228,.12058279E-3,.98E-5,0
ENMAP,2022-033C,2026-07-20T14:39:03.059712,14.74944256,.00012597,97.9784,283.3841,84.7353,275.3999,0,U,52159,999,23158,.76245382E-4,.462E-5,0
